     2.11           G: GLONASS NAV DATA                     RINEX VERSION / TYPE
teqc  2019Feb25                         20221110 12:18:01UTCPGM / RUN BY / DATE
Linux2.6.32-573.12.1.el6.x86_64|x86_64|gcc|Win64-MinGW64|=+ COMMENT
                                                            END OF HEADER
 5 22 11  4 19 45  0.0 1.023756340146D-04 0.000000000000D+00 7.041000000000D+04
    1.904504833984D+04-1.750650405884D-01 0.000000000000D+00 0.000000000000D+00
   -1.693754052734D+04-9.209156036377D-02 2.793967723846D-09 1.000000000000D+00
   -4.916352539063D+02-3.583601951599D+00-0.000000000000D+00 0.000000000000D+00
 6 22 11  4 19 45  0.0-7.858406752348D-05-1.818989403546D-12 7.038000000000D+04
    5.759247070313D+03 1.673456192017D+00-1.862645149231D-09 0.000000000000D+00
   -1.743604736328D+04-1.756856918335D+00 9.313225746155D-10-4.000000000000D+00
    1.767418359375D+04-2.278730392456D+00-1.862645149231D-09 0.000000000000D+00
 7 22 11  4 19 45  0.0 4.374515265226D-05 9.094947017729D-13 7.038000000000D+04
   -8.713571777344D+03 2.323926925659D+00-1.862645149231D-09 0.000000000000D+00
   -6.800016113281D+03-2.116788864136D+00-0.000000000000D+00 5.000000000000D+00
    2.302239843750D+04 2.496109008789D-01-2.793967723846D-09 0.000000000000D+00
14 22 11  4 19 45  0.0 2.414453774691D-05-0.000000000000D+00 7.038000000000D+04
    1.058319238281D+04 4.835968017578D-01 3.725290298462D-09 0.000000000000D+00
    2.000090478516D+04 1.539722442627D+00 9.313225746155D-10-7.000000000000D+00
    1.177220996094D+04-3.055239677429D+00-9.313225746155D-10 0.000000000000D+00
15 22 11  4 19 45  0.0 9.284541010857D-05 0.000000000000D+00 7.038000000000D+04
    1.185994677734D+04 7.181711196899D-01 1.862645149231D-09 0.000000000000D+00
    3.920791503906D+03 2.956043243408D+00 1.862645149231D-09 0.000000000000D+00
    2.226046679688D+04-9.041767120361D-01-2.793967723846D-09 0.000000000000D+00
17 22 11  4 19 45  0.0 5.752118304372D-04 3.637978807092D-12 7.038000000000D+04
    1.971296630859D+04-1.409778594971D+00 3.725290298462D-09 0.000000000000D+00
    1.166509130859D+04-6.595869064331D-01 1.862645149231D-09 4.000000000000D+00
    1.128753759766D+04 3.142956733704D+00-9.313225746155D-10 0.000000000000D+00
18 22 11  4 19 45  0.0 5.040224641562D-05 9.094947017729D-13 7.038000000000D+04
    2.431284863281D+04 7.698078155518D-01 4.656612873077D-09 0.000000000000D+00
    5.464678710938D+03 8.509635925293D-03 2.793967723846D-09-3.000000000000D+00
   -5.325798828125D+03 3.513935089111D+00 0.000000000000D+00 0.000000000000D+00
23 22 11  4 19 45  0.0-6.091315299273D-05-9.094947017729D-13 7.038000000000D+04
   -1.306880859375D+04-2.787758827209D+00-9.313225746155D-10 0.000000000000D+00
    5.592496093750D+03-8.242759704590D-01-9.313225746155D-10 3.000000000000D+00
    2.117553857422D+04-1.503048896790D+00-1.862645149231D-09 0.000000000000D+00
24 22 11  4 19 45  0.0 1.244936138391D-04 2.728484105319D-12 7.038000000000D+04
    3.518336914063D+03-2.867261886597D+00 9.313225746155D-10 0.000000000000D+00
    1.209814648438D+04-9.964408874512D-01 0.000000000000D+00 2.000000000000D+00
    2.220440625000D+04 9.960765838623D-01-1.862645149231D-09 0.000000000000D+00
17 22 11  4 20 15  0.0 5.752183496952D-04 3.637978807092D-12 7.200000000000D+04
    1.645743212891D+04-2.184735298157D+00 3.725290298462D-09 0.000000000000D+00
    1.053448876953D+04-5.563020706177D-01 9.313225746155D-10 4.000000000000D+00
    1.643700439453D+04 2.541627883911D+00-1.862645149231D-09 0.000000000000D+00
24 22 11  4 20 15  0.0 1.244936138391D-04 2.728484105319D-12 7.200000000000D+04
   -1.900849609375D+03-3.105669975281D+00 0.000000000000D+00 0.000000000000D+00
    1.065762792969D+04-5.856246948242D-01-0.000000000000D+00 2.000000000000D+00
    2.311813427734D+04 1.255702972412D-02-1.862645149231D-09 0.000000000000D+00
14 22 11  4 20 15  0.0 2.414453774691D-05-0.000000000000D+00 7.200000000000D+04
    1.142330810547D+04 4.084768295288D-01 3.725290298462D-09 0.000000000000D+00
    2.202883740234D+04 7.053489685059D-01 0.000000000000D+00-7.000000000000D+00
    5.888603027344D+03-3.439665794373D+00-0.000000000000D+00 0.000000000000D+00
 7 22 11  4 20 15  0.0 4.374701529741D-05 9.094947017729D-13 7.200000000000D+04
   -4.834436523438D+03 1.952679634094D+00-1.862645149231D-09 0.000000000000D+00
   -1.088917675781D+04-2.387473106384D+00 0.000000000000D+00 5.000000000000D+00
    2.257891894531D+04-7.393474578857D-01-2.793967723846D-09 0.000000000000D+00
18 22 11  4 20 15  0.0 5.040504038334D-05 9.094947017729D-13 7.200000000000D+04
    2.492500683594D+04-1.048841476440D-01 4.656612873077D-09 0.000000000000D+00
    5.200363769531D+03-2.622909545898D-01 1.862645149231D-09-3.000000000000D+00
    1.123842285156D+03 3.605650901794D+00-0.000000000000D+00 0.000000000000D+00
 6 22 11  4 20 15  0.0-7.858779281378D-05-1.818989403546D-12 7.200000000000D+04
    8.171149414063D+03 1.005477905273D+00-9.313225746155D-10 0.000000000000D+00
   -2.038042822266D+04-1.468747138977D+00 1.862645149231D-09-4.000000000000D+00
    1.294061376953D+04-2.946557998657D+00-1.862645149231D-09 0.000000000000D+00
15 22 11  4 20 15  0.0 9.284541010857D-05-0.000000000000D+00 7.200000000000D+04
    1.344780273438D+04 1.017496109009D+00 2.793967723846D-09 0.000000000000D+00
    8.874787597656D+03 2.507473945618D+00 9.313225746155D-10 0.000000000000D+00
    1.979521337891D+04-1.817293167114D+00-1.862645149231D-09 0.000000000000D+00
17 22 11  4 20 45  0.0 5.752248689532D-04 3.637978807092D-12 7.380000000000D+04
    1.196081005859D+04-2.772465705872D+00 2.793967723846D-09 0.000000000000D+00
    9.791212890625D+03-2.396249771118D-01 0.000000000000D+00 4.000000000000D+00
    2.031945605469D+04 1.744235038757D+00-1.862645149231D-09 0.000000000000D+00
24 22 11  4 20 45  0.0 1.244973391294D-04 2.728484105319D-12 7.380000000000D+04
   -7.478837402344D+03-3.040234565735D+00-0.000000000000D+00 0.000000000000D+00
    1.002490576172D+04-1.167631149292D-01-9.313225746155D-10 2.000000000000D+00
    2.224879687500D+04-9.723119735718D-01-1.862645149231D-09 0.000000000000D+00
14 22 11  4 20 45  0.0 2.414360642433D-05-0.000000000000D+00 7.380000000000D+04
    1.190630957031D+04 8.920288085938D-02 3.725290298462D-09 0.000000000000D+00
    2.254554248047D+04-1.201963424683D-01-9.313225746155D-10-7.000000000000D+00
   -4.505668945313D+02-3.558086395264D+00 0.000000000000D+00 0.000000000000D+00
 7 22 11  4 20 45  0.0 4.374887794256D-05 0.000000000000D+00 7.380000000000D+04
   -1.777046875000D+03 1.426981925964D+00-9.313225746155D-10 0.000000000000D+00
   -1.523617431641D+04-2.394961357117D+00 9.313225746155D-10 5.000000000000D+00
    2.039437158203D+04-1.672398567200D+00-1.862645149231D-09 0.000000000000D+00
18 22 11  4 20 45  0.0 5.040783435106D-05 9.094947017729D-13 7.380000000000D+04
    2.391635888672D+04-1.010877609253D+00 4.656612873077D-09 0.000000000000D+00
    4.672086914063D+03-2.819128036499D-01 9.313225746155D-10-3.000000000000D+00
    7.486407714844D+03 3.417874336243D+00-9.313225746155D-10 0.000000000000D+00
15 22 11  4 20 45  0.0 9.284541010857D-05-0.000000000000D+00 7.380000000000D+04
    1.539797802734D+04 1.109758377075D+00 3.725290298462D-09 0.000000000000D+00
    1.282500976563D+04 1.855418205261D+00 0.000000000000D+00 0.000000000000D+00
    1.580237207031D+04-2.590500831604D+00-9.313225746155D-10 0.000000000000D+00
 6 22 11  4 20 45  0.0-7.858779281378D-05-1.818989403546D-12 7.383000000000D+04
    9.408726074219D+03 3.866615295410D-01-0.000000000000D+00 0.000000000000D+00
   -2.256715820313D+04-9.214859008789D-01 1.862645149231D-09-4.000000000000D+00
    7.203986816406D+03-3.385969161987D+00-9.313225746155D-10 0.000000000000D+00
 9 22 11  4 20 45  0.0 8.580461144447D-05 2.728484105319D-12 7.449000000000D+04
   -1.617483398438D+03 1.014394760132D+00-1.862645149231D-09 0.000000000000D+00
   -1.955335595703D+04 1.989751815796D+00 9.313225746155D-10-2.000000000000D+00
    1.636324414063D+04 2.473605155945D+00-1.862645149231D-09 0.000000000000D+00
 8 22 11  4 20 45  0.0-6.791483610868D-05 0.000000000000D+00 7.452000000000D+04
   -1.224091601563D+04 1.672986030579D+00-1.862645149231D-09 0.000000000000D+00
   -5.234550781250D+02-2.558828353882D+00-0.000000000000D+00 6.000000000000D+00
    2.242749169922D+04 8.520202636719D-01-1.862645149231D-09 0.000000000000D+00
 9 22 11  4 21 15  0.0 8.580926805735D-05 2.728484105319D-12 7.560000000000D+04
    7.313896484375D+02 1.593250274658D+00-0.000000000000D+00 0.000000000000D+00
   -1.570589990234D+04 2.238370895386D+00 1.862645149231D-09-2.000000000000D+00
    2.012871435547D+04 1.683115959167D+00-2.793967723846D-09 0.000000000000D+00
17 22 11  4 21 15  0.0 5.752313882113D-04 2.728484105319D-12 7.560000000000D+04
    6.638514648438D+03-3.091630935669D+00 9.313225746155D-10 0.000000000000D+00
    9.752740722656D+03 2.110633850098D-01-0.000000000000D+00 4.000000000000D+00
    2.263511621094D+04 8.119688034058D-01-1.862645149231D-09 0.000000000000D+00
24 22 11  4 21 15  0.0 1.245019957423D-04 2.728484105319D-12 7.560000000000D+04
   -1.266404980469D+04-2.673604011536D+00-1.862645149231D-09 0.000000000000D+00
    1.020693896484D+04 3.018589019775D-01-9.313225746155D-10 2.000000000000D+00
    1.966260351563D+04-1.882712364197D+00-1.862645149231D-09 0.000000000000D+00
 7 22 11  4 21 15  0.0 4.375260323286D-05 0.000000000000D+00 7.560000000000D+04
    2.727402343750D+02 8.515062332153D-01-0.000000000000D+00 0.000000000000D+00
   -1.933539257813D+04-2.111270904541D+00 1.862645149231D-09 5.000000000000D+00
    1.663525488281D+04-2.477485656738D+00-1.862645149231D-09 0.000000000000D+00
18 22 11  4 21 15  0.0 5.041155964136D-05 9.094947017729D-13 7.560000000000D+04
    2.133977343750D+04-1.827451705933D+00 4.656612873077D-09 0.000000000000D+00
    4.333224609375D+03-5.682182312012D-02 0.000000000000D+00-3.000000000000D+00
    1.326907177734D+04 2.965592384338D+00-1.862645149231D-09 0.000000000000D+00
